NORAD_CAT_ID,OBJECT_NAME,OBJECT_TYPE,EPOCH,MEAN_MOTION,ECCENTRICITY,INCLINATION,RA_OF_ASC_NODE,ARG_OF_PERICENTER,MEAN_ANOMALY,BSTAR,MEAN_MOTION_DOT,MEAN_MOTION_DDOT,TLE_LINE0,TLE_LINE1,TLE_LINE2,SEMIMAJOR_AXIS,PERIOD,APOGEE,PERIGEE,DECAYED
52854.0,STARLINK-4204,PAYLOAD,2023-09-14 20:57:01,15.08833827,0.0001246,53.2173,134.9783,91.0155,269.098,-5.8727e-05,-1.222e-05,0.0,0 STARLINK-4204,1 52854U 22062AA  23257.87293130 -.00001222  00000-0 -58727-4 0  9990,2 52854  53.2173 134.9783 0001246  91.0155 269.0980 15.08833827 69022,6917.899,95.438,540.626,538.902,0.0
52854.0,STARLINK-4204,PAYLOAD,2023-09-15 01:43:10,15.08834606,0.0001279,53.2173,134.0854,91.4649,268.649,-2.7303e-05,-7.22e-06,0.0,0 STARLINK-4204,1 52854U 22062AA  23258.07165095 -.00000722  00000-0 -27303-4 0  9991,2 52854  53.2173 134.0854 0001279  91.4649 268.6490 15.08834606 69544,6917.897,95.438,540.647,538.877,0.0
52854.0,STARLINK-4204,PAYLOAD,2023-09-15 23:58:33,15.08850116,0.0001339,53.216,129.923,91.3746,268.74,0.00011494,1.542e-05,0.0,0 STARLINK-4204,1 52854U 22062AA  23258.99900050  .00001542  00000-0  11494-3 0  9992,2 52854  53.2160 129.9230 0001339  91.3746 268.7400 15.08850116 69686,6917.849,95.437,540.641,538.788,0.0
52854.0,STARLINK-4204,PAYLOAD,2023-09-16 15:52:25,15.08834305,0.0001516,53.2166,126.9518,97.1466,262.9699,0.00011954,1.615e-05,0.0,0 STARLINK-4204,1 52854U 22062AA  23259.66141069  .00001615  00000-0  11954-3 0  9996,2 52854  53.2166 126.9518 0001516  97.1466 262.9699 15.08834305 69787,6917.898,95.438,540.812,538.714,0.0
52854.0,STARLINK-4204,PAYLOAD,2023-09-16 23:49:21,15.08832495,0.000154,53.218,125.4656,102.3906,257.7258,0.00012878,1.762e-05,0.0,0 STARLINK-4204,1 52854U 22062AA  23259.99261223  .00001762  00000-0  12878-3 0  9996,2 52854  53.2180 125.4656 0001540 102.3906 257.7258 15.08832495 69348,6917.903,95.438,540.834,538.703,0.0
52854.0,STARLINK-4204,PAYLOAD,2023-09-17 22:04:45,15.08847299,0.0001504,53.2181,121.3019,94.8517,265.2647,6.1865e-05,6.97e-06,0.0,0 STARLINK-4204,1 52854U 22062AA  23260.91996677  .00000697  00000-0  61865-4 0  9995,2 52854  53.2181 121.3019 0001504  94.8517 265.2647 15.08847299 69973,6917.858,95.437,540.764,538.683,0.0
52854.0,STARLINK-4204,PAYLOAD,2023-09-18 20:20:09,15.08840515,0.0001262,53.2162,117.1378,90.9738,269.1398,0.00011252,1.503e-05,0.0,0 STARLINK-4204,1 52854U 22062AA  23261.84733052  .00001503  00000-0  11252-3 0  9995,2 52854  53.2162 117.1378 0001262  90.9738 269.1398 15.08840515 69628,6917.879,95.438,540.617,538.871,0.0
52854.0,STARLINK-4204,PAYLOAD,2023-09-19 01:06:18,15.08844543,0.0001264,53.216,116.2454,86.0489,274.0648,0.00014358,1.998e-05,0.0,0 STARLINK-4204,1 52854U 22062AA  23262.04604742  .00001998  00000-0  14358-3 0  9999,2 52854  53.2160 116.2454 0001264  86.0489 274.0648 15.08844543 70149,6917.867,95.437,540.606,538.857,0.0
52854.0,STARLINK-4204,PAYLOAD,2023-09-19 18:35:33,15.08830757,0.0001382,53.2165,112.9735,92.846,267.269,0.00034482,5.203e-05,0.0,0 STARLINK-4204,1 52854U 22062AA  23262.77468864  .00005203  00000-0  34482-3 0  9995,2 52854  53.2165 112.9735 0001382  92.8460 267.2690 15.08830757 70259,6917.909,95.438,540.73,538.818,0.0
52854.0,STARLINK-4204,PAYLOAD,2023-09-19 21:46:19,15.08845176,0.0001359,53.2155,112.3788,82.8106,277.3041,0.0004193,6.392e-05,0.0,0 STARLINK-4204,1 52854U 22062AA  23262.90716565  .00006392  00000-0  41930-3 0  9990,2 52854  53.2155 112.3788 0001359  82.8106 277.3041 15.08845176 70275,6917.865,95.437,540.67,538.789,0.0
52854.0,STARLINK-4204,PAYLOAD,2023-09-20 18:26:20,15.08828858,0.000111,53.216,108.5119,81.0933,279.0185,-0.0001031,-1.928e-05,0.0,0 STARLINK-4204,1 52854U 22062AA  23263.76829815 -.00001928  00000-0 -10310-3 0  9998,2 52854  53.2160 108.5119 0001110  81.0933 279.0185 15.08828858 70401,6917.914,95.438,540.547,539.012,0.0
52854.0,STARLINK-4204,PAYLOAD,2023-09-20 20:01:44,15.08829507,0.0001402,53.2158,108.2142,87.7247,272.3906,-8.0825e-05,-1.574e-05,0.0,0 STARLINK-4204,1 52854U 22062AA  23263.83453872 -.00001574  00000-0 -80825-4 0  9998,2 52854  53.2158 108.2142 0001402  87.7247 272.3906 15.08829507 69920,6917.912,95.438,540.747,538.808,0.0
52854.0,STARLINK-4204,PAYLOAD,2023-09-20 23:12:30,15.08828586,0.0001421,53.2161,107.6196,87.0161,273.0994,-8.2826e-05,-1.605e-05,0.0,0 STARLINK-4204,1 52854U 22062AA  23263.96702024 -.00001605  00000-0 -82826-4 0  9996,2 52854  53.2161 107.6196 0001421  87.0161 273.0994 15.08828586 69948,6917.915,95.438,540.763,538.797,0.0
52854.0,STARLINK-4204,PAYLOAD,2023-09-21 16:41:45,15.08836873,0.000146,53.2163,104.3488,86.7922,273.3238,3.6928e-05,3e-06,0.0,0 STARLINK-4204,1 52854U 22062AA  23264.69566100  .00000300  00000-0  36928-4 0  9991,2 52854  53.2163 104.3488 0001460  86.7922 273.3238 15.08836873 70542,6917.89,95.438,540.765,538.745,0.0
52854.0,STARLINK-4204,PAYLOAD,2023-09-22 13:21:45,15.08845085,0.0001436,53.2155,100.4843,85.4652,274.6505,0.00036544,5.534e-05,0.0,0 STARLINK-4204,1 52854U 22062AA  23265.55678044  .00005534  00000-0  36544-3 0  9995,2 52854  53.2155 100.4843 0001436  85.4652 274.6505 15.08845085 70180,6917.865,95.437,540.723,538.736,0.0
52854.0,STARLINK-4204,PAYLOAD,2023-09-22 18:07:55,15.08851567,0.0001447,53.2156,99.5916,86.2543,273.8615,0.00045486,6.961e-05,0.0,0 STARLINK-4204,1 52854U 22062AA  23265.75549870  .00006961  00000-0  45486-3 0  9991,2 52854  53.2156  99.5916 0001447  86.2543 273.8615 15.08851567 70703,6917.845,95.437,540.711,538.709,0.0
52854.0,STARLINK-4204,PAYLOAD,2023-09-22 19:43:18,15.08855603,0.0001445,53.2157,99.2939,87.3907,272.7251,0.00052694,8.112e-05,0.0,0 STARLINK-4204,1 52854U 22062AA  23265.82173727  .00008112  00000-0  52694-3 0  9992,2 52854  53.2157  99.2939 0001445  87.3907 272.7251 15.08855603 70226,6917.833,95.437,540.697,538.698,0.0
52854.0,STARLINK-4204,PAYLOAD,2023-09-23 17:58:41,15.08849555,0.00013,53.2161,95.1299,95.8469,264.2671,0.00014502,2.021e-05,0.0,0 STARLINK-4204,1 52854U 22062AA  23266.74909466  .00002021  00000-0  14502-3 0  9990,2 52854  53.2161  95.1299 0001300  95.8469 264.2671 15.08849555 70852,6917.851,95.437,540.616,538.817,0.0
52854.0,STARLINK-4204,PAYLOAD,2023-09-24 13:03:19,15.08844634,0.000139,53.2168,91.5606,79.6896,280.4253,4.2361e-06,-2.21e-06,0.0,0 STARLINK-4204,1 52854U 22062AA  23267.54397467 -.00000221  00000-0  42361-5 0  9998,2 52854  53.2168  91.5606 0001390  79.6896 280.4253 15.08844634 70482,6917.866,95.437,540.693,538.77,0.0
52854.0,STARLINK-4204,PAYLOAD,2023-09-24 17:49:28,15.08845776,0.0001316,53.2164,90.6683,90.5842,269.5301,2.0586e-06,-2.55e-06,0.0,0 STARLINK-4204,1 52854U 22062AA  23267.74269385 -.00000255  00000-0  20586-5 0  9999,2 52854  53.2164  90.6683 0001316  90.5842 269.5301 15.08845776 71003,6917.863,95.437,540.638,538.817,0.0
52854.0,STARLINK-4204,PAYLOAD,2023-09-25 11:18:43,15.08841007,0.0001214,53.2162,87.399,85.4094,274.7037,7.2568e-05,8.67e-06,0.0,0 STARLINK-4204,1 52854U 22062AA  23268.47133573  .00000867  00000-0  72568-4 0  9993,2 52854  53.2162  87.3990 0001214  85.4094 274.7037 15.08841007 70628,6917.877,95.437,540.582,538.902,0.0
52854.0,STARLINK-4204,PAYLOAD,2023-09-25 19:15:38,15.08849172,0.000113,53.2158,85.9134,87.0362,273.0759,0.0001425,1.981e-05,0.0,0 STARLINK-4204,1 52854U 22062AA  23268.80253077  .00001981  00000-0  14250-3 0  9993,2 52854  53.2158  85.9134 0001130  87.0362 273.0759 15.08849172 71164,6917.852,95.437,540.499,538.936,0.0
52854.0,STARLINK-4204,PAYLOAD,2023-09-26 17:31:03,15.08835926,0.0001226,53.2158,81.7502,88.0761,272.0371,2.7234e-05,1.46e-06,0.0,0 STARLINK-4204,1 52854U 22062AA  23269.72990131  .00000146  00000-0  27234-4 0  9993,2 52854  53.2158  81.7502 0001226  88.0761 272.0371 15.08835926 71304,6917.893,95.438,540.606,538.91,0.0
52854.0,STARLINK-4204,PAYLOAD,2023-09-26 20:41:49,15.08837822,0.0001309,53.216,81.1556,87.942,272.1722,5.5926e-05,6.02e-06,0.0,0 STARLINK-4204,1 52854U 22062AA  23269.86238107  .00000602  00000-0  55926-4 0  9992,2 52854  53.2160  81.1556 0001309  87.9420 272.1722 15.08837822 70837,6917.887,95.438,540.658,538.846,0.0
52854.0,STARLINK-4204,PAYLOAD,2023-09-27 11:00:18,15.08839817,0.00013,53.2156,78.4791,88.8552,271.2589,0.00017395,2.482e-05,0.0,0 STARLINK-4204,1 52854U 22062AA  23270.45854197  .00002482  00000-0  17395-3 0  9997,2 52854  53.2156  78.4791 0001300  88.8552 271.2589 15.08839817 70926,6917.881,95.438,540.645,538.847,0.0
52854.0,STARLINK-4204,PAYLOAD,2023-09-27 18:57:13,15.08848038,0.0001395,53.2158,76.992,86.758,273.3572,0.0004109,6.259e-05,0.0,0 STARLINK-4204,1 52854U 22062AA  23270.78974059  .00006259  00000-0  41090-3 0  9998,2 52854  53.2158  76.9920 0001395  86.7580 273.3572 15.08848038 71467,6917.856,95.437,540.686,538.756,0.0
52854.0,STARLINK-4204,PAYLOAD,2023-09-28 17:12:37,15.08846796,0.0001375,53.2166,72.8289,88.1003,272.0147,0.00025517,3.776e-05,0.0,0 STARLINK-4204,1 52854U 22062AA  23271.71710077  .00003776  00000-0  25517-3 0  9997,2 52854  53.2166  72.8289 0001375  88.1003 272.0147 15.08846796 71602,6917.86,95.437,540.676,538.773,0.0
52854.0,STARLINK-4204,PAYLOAD,2023-09-28 20:23:23,15.08851291,0.0001412,53.2169,72.2328,88.9635,271.1519,0.00033856,5.106e-05,0.0,0 STARLINK-4204,1 52854U 22062AA  23271.84957897  .00005106  00000-0  33856-3 0  9998,2 52854  53.2169  72.2328 0001412  88.9635 271.1519 15.08851291 71131,6917.846,95.437,540.688,538.734,0.0
52854.0,STARLINK-4204,PAYLOAD,2023-09-29 13:52:38,15.08845454,0.0001868,53.2169,68.9623,109.8463,250.2731,0.00015594,2.195e-05,0.0,0 STARLINK-4204,1 52854U 22062AA  23272.57821954  .00002195  00000-0  15594-3 0  9997,2 52854  53.2169  68.9623 0001868 109.8463 250.2731 15.08845454 71248,6917.864,95.437,541.021,538.436,0.0
52854.0,STARLINK-4204,PAYLOAD,2023-09-29 17:03:24,15.08849276,0.0001408,53.217,68.3656,82.2405,277.8747,0.00020189,2.927e-05,0.0,0 STARLINK-4204,1 52854U 22062AA  23272.71069799  .00002927  00000-0  20189-3 0  9993,2 52854  53.2170  68.3656 0001408  82.2405 277.8747 15.08849276 71754,6917.852,95.437,540.691,538.743,0.0
